[{"CCSDS_OMM_VERS":"2.0","COMMENT":"GENERATED VIA SPACE-TRACK.ORG API","CREATION_DATE":"2022-12-08T18:21:51","ORIGINATOR":"18 SPCS","OBJECT_NAME":"THAICOM 1","OBJECT_ID":"1993-078B","CENTER_NAME":"EARTH","REF_FRAME":"TEME","TIME_SYSTEM":"UTC","MEAN_ELEMENT_THEORY":"SGP4","EPOCH":"2022-12-08T05:09:42.740928","MEAN_MOTION":"0.99182248","ECCENTRICITY":"0.00043250","INCLINATION":"9.6949","RA_OF_ASC_NODE":"43.7140","ARG_OF_PERICENTER":"164.1310","MEAN_ANOMALY":"342.3897","EPHEMERIS_TYPE":"0","CLASSIFICATION_TYPE":"U","NORAD_CAT_ID":"22931","ELEMENT_SET_NO":"999","REV_AT_EPOCH":"3340","BSTAR":"0.00000000000000","MEAN_MOTION_DOT":"0.00000037","MEAN_MOTION_DDOT":"0.0000000000000","SEMIMAJOR_AXIS":"42472.961","PERIOD":"1451.873","APOAPSIS":"36113.196","PERIAPSIS":"36076.457","OBJECT_TYPE":"PAYLOAD","RCS_SIZE":"MEDIUM","COUNTRY_CODE":"THAI","LAUNCH_DATE":"1993-12-18","SITE":"FRGUI","DECAY_DATE":null,"FILE":"3684614","GP_ID":"219758167","TLE_LINE0":"0 THAICOM 1","TLE_LINE1":"1 22931U 93078B   22342.21507802  .00000037  00000-0  00000-0 0  9992","TLE_LINE2":"2 22931   9.6949  43.7140 0004325 164.1310 342.3897  0.99182248 33404"},{"CCSDS_OMM_VERS":"2.0","COMMENT":"GENERATED VIA SPACE-TRACK.ORG API","CREATION_DATE":"2022-12-08T03:13:54","ORIGINATOR":"18 SPCS","OBJECT_NAME":"TELSTAR 401","OBJECT_ID":"1993-077A","CENTER_NAME":"EARTH","REF_FRAME":"TEME","TIME_SYSTEM":"UTC","MEAN_ELEMENT_THEORY":"SGP4","EPOCH":"2022-12-07T15:49:40.478592","MEAN_MOTION":"1.00257856","ECCENTRICITY":"0.00095900","INCLINATION":"14.7832","RA_OF_ASC_NODE":"0.8043","ARG_OF_PERICENTER":"115.8191","MEAN_ANOMALY":"89.5726","EPHEMERIS_TYPE":"0","CLASSIFICATION_TYPE":"U","NORAD_CAT_ID":"22927","ELEMENT_SET_NO":"999","REV_AT_EPOCH":"10566","BSTAR":"0.00000000000000","MEAN_MOTION_DOT":"-0.00000093","MEAN_MOTION_DDOT":"0.0000000000000","SEMIMAJOR_AXIS":"42168.637","PERIOD":"1436.296","APOAPSIS":"35830.942","PERIAPSIS":"35750.062","OBJECT_TYPE":"PAYLOAD","RCS_SIZE":"LARGE","COUNTRY_CODE":"US","LAUNCH_DATE":"1993-12-16","SITE":"AFETR","DECAY_DATE":null,"FILE":"3684212","GP_ID":"219723061","TLE_LINE0":"0 TELSTAR 401","TLE_LINE1":"1 22927U 93077A   22341.65949628 -.00000093  00000-0  00000-0 0  9992","TLE_LINE2":"2 22927  14.7832   0.8043 0009590 115.8191  89.5726  1.00257856105662"},{"CCSDS_OMM_VERS":"2.0","COMMENT":"GENERATED VIA SPACE-TRACK.ORG API","CREATION_DATE":"2022-12-08T18:21:51","ORIGINATOR":"18 SPCS","OBJECT_NAME":"IABS R\/B","OBJECT_ID":"1993-074B","CENTER_NAME":"EARTH","REF_FRAME":"TEME","TIME_SYSTEM":"UTC","MEAN_ELEMENT_THEORY":"SGP4","EPOCH":"2022-12-07T20:03:20.548800","MEAN_MOTION":"0.99991364","ECCENTRICITY":"0.00632310","INCLINATION":"14.6793","RA_OF_ASC_NODE":"351.9137","ARG_OF_PERICENTER":"69.4221","MEAN_ANOMALY":"291.2418","EPHEMERIS_TYPE":"0","CLASSIFICATION_TYPE":"U","NORAD_CAT_ID":"22916","ELEMENT_SET_NO":"999","REV_AT_EPOCH":"1303","BSTAR":"0.00000000000000","MEAN_MOTION_DOT":"-0.00000236","MEAN_MOTION_DDOT":"0.0000000000000","SEMIMAJOR_AXIS":"42243.528","PERIOD":"1440.124","APOAPSIS":"36132.503","PERIAPSIS":"35598.283","OBJECT_TYPE":"ROCKET BODY","RCS_SIZE":null,"COUNTRY_CODE":"US","LAUNCH_DATE":"1993-11-28","SITE":"AFETR","DECAY_DATE":null,"FILE":"3684614","GP_ID":"219758660","TLE_LINE0":"0 IABS R\/B","TLE_LINE1":"1 22916U 93074B   22341.83565450 -.00000236  00000-0  00000-0 0  9993","TLE_LINE2":"2 22916  14.6793 351.9137 0063231  69.4221 291.2418  0.99991364 13034"},{"CCSDS_OMM_VERS":"2.0","COMMENT":"GENERATED VIA SPACE-TRACK.ORG API","CREATION_DATE":"2022-12-08T03:13:54","ORIGINATOR":"18 SPCS","OBJECT_NAME":"SOLIDARIDAD 1","OBJECT_ID":"1993-073A","CENTER_NAME":"EARTH","REF_FRAME":"TEME","TIME_SYSTEM":"UTC","MEAN_ELEMENT_THEORY":"SGP4","EPOCH":"2022-12-07T15:48:27.667584","MEAN_MOTION":"1.00268202","ECCENTRICITY":"0.00040580","INCLINATION":"13.9845","RA_OF_ASC_NODE":"11.9432","ARG_OF_PERICENTER":"197.5495","MEAN_ANOMALY":"355.5307","EPHEMERIS_TYPE":"0","CLASSIFICATION_TYPE":"U","NORAD_CAT_ID":"22911","ELEMENT_SET_NO":"999","REV_AT_EPOCH":"10495","BSTAR":"0.00000000000000","MEAN_MOTION_DOT":"-0.00000087","MEAN_MOTION_DDOT":"0.0000000000000","SEMIMAJOR_AXIS":"42165.736","PERIOD":"1436.148","APOAPSIS":"35804.712","PERIAPSIS":"35770.491","OBJECT_TYPE":"PAYLOAD","RCS_SIZE":"LARGE","COUNTRY_CODE":"MEX","LAUNCH_DATE":"1993-11-20","SITE":"FRGUI","DECAY_DATE":null,"FILE":"3684212","GP_ID":"219723060","TLE_LINE0":"0 SOLIDARIDAD 1","TLE_LINE1":"1 22911U 93073A   22341.65865356 -.00000087  00000-0  00000-0 0  9999","TLE_LINE2":"2 22911  13.9845  11.9432 0004058 197.5495 355.5307  1.00268202104952"},{"CCSDS_OMM_VERS":"2.0","COMMENT":"GENERATED VIA SPACE-TRACK.ORG API","CREATION_DATE":"2022-12-08T18:21:51","ORIGINATOR":"18 SPCS","OBJECT_NAME":"GORIZONT 29","OBJECT_ID":"1993-072A","CENTER_NAME":"EARTH","REF_FRAME":"TEME","TIME_SYSTEM":"UTC","MEAN_ELEMENT_THEORY":"SGP4","EPOCH":"2022-12-08T09:41:27.988224","MEAN_MOTION":"1.00149531","ECCENTRICITY":"0.00094590","INCLINATION":"14.5520","RA_OF_ASC_NODE":"357.0535","ARG_OF_PERICENTER":"345.7363","MEAN_ANOMALY":"198.3731","EPHEMERIS_TYPE":"0","CLASSIFICATION_TYPE":"U","NORAD_CAT_ID":"22907","ELEMENT_SET_NO":"999","REV_AT_EPOCH":"10628","BSTAR":"0.00000000000000","MEAN_MOTION_DOT":"-0.00000285","MEAN_MOTION_DDOT":"0.0000000000000","SEMIMAJOR_AXIS":"42199.039","PERIOD":"1437.850","APOAPSIS":"35860.820","PERIAPSIS":"35780.988","OBJECT_TYPE":"PAYLOAD","RCS_SIZE":"LARGE","COUNTRY_CODE":"CIS","LAUNCH_DATE":"1993-11-18","SITE":"TTMTR","DECAY_DATE":null,"FILE":"3684614","GP_ID":"219757665","TLE_LINE0":"0 GORIZONT 29","TLE_LINE1":"1 22907U 93072A   22342.40379616 -.00000285  00000-0  00000-0 0  9996","TLE_LINE2":"2 22907  14.5520 357.0535 0009459 345.7363 198.3731  1.00149531106288"},{"CCSDS_OMM_VERS":"2.0","COMMENT":"GENERATED VIA SPACE-TRACK.ORG API","CREATION_DATE":"2022-12-08T18:21:51","ORIGINATOR":"18 SPCS","OBJECT_NAME":"SL-12 R\/B(2)","OBJECT_ID":"1993-069D","CENTER_NAME":"EARTH","REF_FRAME":"TEME","TIME_SYSTEM":"UTC","MEAN_ELEMENT_THEORY":"SGP4","EPOCH":"2022-12-08T06:25:54.609024","MEAN_MOTION":"1.00470810","ECCENTRICITY":"0.00054120","INCLINATION":"14.4589","RA_OF_ASC_NODE":"356.4875","ARG_OF_PERICENTER":"59.1921","MEAN_ANOMALY":"114.5790","EPHEMERIS_TYPE":"0","CLASSIFICATION_TYPE":"U","NORAD_CAT_ID":"22883","ELEMENT_SET_NO":"999","REV_AT_EPOCH":"10613","BSTAR":"0.00000000000000","MEAN_MOTION_DOT":"-0.00000014","MEAN_MOTION_DDOT":"0.0000000000000","SEMIMAJOR_AXIS":"42109.030","PERIOD":"1433.252","APOAPSIS":"35753.685","PERIAPSIS":"35708.106","OBJECT_TYPE":"ROCKET BODY","RCS_SIZE":"LARGE","COUNTRY_CODE":"CIS","LAUNCH_DATE":"1993-10-28","SITE":"TTMTR","DECAY_DATE":null,"FILE":"3684614","GP_ID":"219758416","TLE_LINE0":"0 SL-12 R\/B(2)","TLE_LINE1":"1 22883U 93069D   22342.26799316 -.00000014  00000-0  00000-0 0  9992","TLE_LINE2":"2 22883  14.4589 356.4875 0005412  59.1921 114.5790  1.00470810106132"},{"CCSDS_OMM_VERS":"2.0","COMMENT":"GENERATED VIA SPACE-TRACK.ORG API","CREATION_DATE":"2022-12-08T18:21:51","ORIGINATOR":"18 SPCS","OBJECT_NAME":"GORIZONT 28","OBJECT_ID":"1993-069A","CENTER_NAME":"EARTH","REF_FRAME":"TEME","TIME_SYSTEM":"UTC","MEAN_ELEMENT_THEORY":"SGP4","EPOCH":"2022-12-08T06:25:16.953312","MEAN_MOTION":"0.99658119","ECCENTRICITY":"0.00342030","INCLINATION":"14.6426","RA_OF_ASC_NODE":"357.6052","ARG_OF_PERICENTER":"135.7939","MEAN_ANOMALY":"34.2124","EPHEMERIS_TYPE":"0","CLASSIFICATION_TYPE":"U","NORAD_CAT_ID":"22880","ELEMENT_SET_NO":"999","REV_AT_EPOCH":"10630","BSTAR":"0.00000000000000","MEAN_MOTION_DOT":"-0.00000165","MEAN_MOTION_DDOT":"0.0000000000000","SEMIMAJOR_AXIS":"42337.647","PERIOD":"1444.940","APOAPSIS":"36104.319","PERIAPSIS":"35814.705","OBJECT_TYPE":"PAYLOAD","RCS_SIZE":"LARGE","COUNTRY_CODE":"CIS","LAUNCH_DATE":"1993-10-28","SITE":"TTMTR","DECAY_DATE":null,"FILE":"3684614","GP_ID":"219758165","TLE_LINE0":"0 GORIZONT 28","TLE_LINE1":"1 22880U 93069A   22342.26755733 -.00000165  00000-0  00000-0 0  9991","TLE_LINE2":"2 22880  14.6426 357.6052 0034203 135.7939  34.2124  0.99658119106306"},{"CCSDS_OMM_VERS":"2.0","COMMENT":"GENERATED VIA SPACE-TRACK.ORG API","CREATION_DATE":"2022-12-08T18:21:51","ORIGINATOR":"18 SPCS","OBJECT_NAME":"INTELSAT 701","OBJECT_ID":"1993-066A","CENTER_NAME":"EARTH","REF_FRAME":"TEME","TIME_SYSTEM":"UTC","MEAN_ELEMENT_THEORY":"SGP4","EPOCH":"2022-12-08T10:19:02.995392","MEAN_MOTION":"0.99320598","ECCENTRICITY":"0.00018560","INCLINATION":"8.1218","RA_OF_ASC_NODE":"56.4377","ARG_OF_PERICENTER":"48.2017","MEAN_ANOMALY":"347.2666","EPHEMERIS_TYPE":"0","CLASSIFICATION_TYPE":"U","NORAD_CAT_ID":"22871","ELEMENT_SET_NO":"999","REV_AT_EPOCH":"10632","BSTAR":"0.00000000000000","MEAN_MOTION_DOT":"0.00000088","MEAN_MOTION_DDOT":"0.0000000000000","SEMIMAJOR_AXIS":"42433.510","PERIOD":"1449.850","APOAPSIS":"36063.251","PERIAPSIS":"36047.499","OBJECT_TYPE":"PAYLOAD","RCS_SIZE":"LARGE","COUNTRY_CODE":"ITSO","LAUNCH_DATE":"1993-10-22","SITE":"FRGUI","DECAY_DATE":null,"FILE":"3684614","GP_ID":"219759159","TLE_LINE0":"0 INTELSAT 701","TLE_LINE1":"1 22871U 93066A   22342.42989578  .00000088  00000-0  00000-0 0  9995","TLE_LINE2":"2 22871   8.1218  56.4377 0001856  48.2017 347.2666  0.99320598106327"}]